company_name,street_num,street_name,city,state,country,postal,email,phone
"Fay, Lueilwitz and King",5893,Westerfield,Dallas,Texas,United States,75205,sbestwerthick0@gnu.org,(469) 9547983
Welch-Schamberger,37,Oak,Beaumont,Texas,United States,77705,uheinsius1@unicef.org,(409) 9750554
Welty Bens,28,Maison,Houston,Texas,United States,77705,sohwja@gmail.com,(402) 8820919
McClure-Skiles,529,Sycamore,Sacramento,California,United States,95852,csorrie2@weather.com,(916) 8848729
Kautzer-Wolf,278,Annamark,Saint Augustine,Florida,United States,32092,jmillhouse3@army.mil,(904) 8551679
"Maggio, Bergnaum and Konopelski",1,High Crossing,Newark,New Jersey,United States,7112,kmuir4@acquirethisname.com,(973) 6608228
Orn-Cummings,337,Anderson,Olympia,Washington,United States,98506,dfewings5@bigcartel.com,(360) 5424980
"Bins, Huels and Hand",73720,Acker,Topeka,Kansas,United States,66667,lcarradice6@businessweek.com,(785) 9318302
Schulist-Johnston,55,Transport,Chattanooga,Tennessee,United States,37416,sshotton7@stumbleupon.com,(423) 3845755
"Keeling, Tromp and Vandervort",93,Killdeer,Nashville,Tennessee,United States,37245,cgodspeede8@eventbrite.com,(615) 4897861
"Balistreri, Wisozk and Hudson",6447,High Crossing,Naperville,Illinois,United States,60567,bemm9@imdb.com,(630) 3746413
"Schmitt, Beahan and Douglas",862,Transport,Shreveport,Louisiana,United States,71115,clamacrafta@theguardian.com,(318) 1286396
Swift-Reilly,23,Tony,Tampa,Florida,United States,33661,yolsenb@feedburner.com,(813) 8910405
Goyette LLC,79964,Golf Course,Philadelphia,Pennsylvania,United States,19104,eriddingc@mail.ru,(610) 7383466
"McGlynn, Zieme and Turner",822,Rowland,Bronx,New York,United States,10464,mwoodruffd@nba.com,(914) 3472980
Erdman Inc,51,Brentwood,Corona,California,United States,92883,jaronoffe@last.fm,(626) 2892012
Frami Group,4,Dorton,Pittsburgh,Pennsylvania,United States,15250,lhaitlief@live.com,(412) 7009824
Prosacco Group,49,Dahle,Lansing,Michigan,United States,48919,eorangeg@blog.com,(517) 6352124
Robel Inc,20310,Lakewood Gardens,Wichita,Kansas,United States,67230,tcaffh@ow.ly,(316) 4831095
Boehm-McLaughlin,668,Haas,Durham,North Carolina,United States,27710,mantczaki@wiley.com,(919) 9903994
