company_name,street_num,street_name,city,state,country,postal,email,phone
Leannon-Schmeler,4,Jackson,Dallas,Texas,United States,75372,gfernyhough0@google.ca,(214) 4158018
Ruecker-Macejkovic,56,Anzinger,Louisville,Kentucky,United States,40205,dwebermann1@clickbank.net,(502) 8584969
Sipes-Deckow,4425,Linden,New York City,New York,United States,10045,gmalyon2@cnet.com,(917) 1787153
Wiza Group,6,Transport,Salt Lake City,Utah,United States,84135,tliddiatt3@drupal.org,(801) 3729918
Monahan-Grady,11,Waxwing,El Paso,Texas,United States,88535,kjouannisson4@multiply.com,(915) 1041006
"Satterfield, Satterfield and Klocko",1,Elka,Washington,District of Columbia,United States,20591,claroux5@fema.gov,(202) 8995164
Kozey Inc,4,Dorton,New York City,New York,United States,10090,daiken6@techcrunch.com,(212) 7856302
"Robel, Gaylord and Bergstrom",34,East,Athens,Georgia,United States,30605,ktitchmarsh7@woothemes.com,(706) 1677807
Gleason-Abshire,486,Algoma,Vero Beach,Florida,United States,32969,cwapplington8@bluehost.com,(772) 5680412
Hartmann-Berge,4543,Hagan,Columbia,South Carolina,United States,29208,mscorrer9@ucoz.com,(803) 3827667
Blick and Sons,298,Hazelcrest,Saint Louis,Missouri,United States,63158,lwesleya@jalbum.net,(314) 1068205
King-Morar,93138,Sunbrook,Springfield,Illinois,United States,62776,dsemarkeb@xinhuanet.com,(217) 2128069
"Gulgowski, Kertzmann and Hoeger",6274,Judy,Mobile,Alabama,United States,36628,vlearoydc@prlog.org,(251) 9193916
"Deckow, Lind and Friesen",802,Armistice,Punta Gorda,Florida,United States,33982,ypietersend@patch.com,(941) 3066520
"VonRueden, Prosacco and Hahn",5,Donald,Springfield,Illinois,United States,62764,achilese@nymag.com,(217) 9190832
"Mayert, Johns and West",105,Bowman,El Paso,Texas,United States,79955,kbarajazf@tumblr.com,(915) 1165035
Hand and Sons,7,Darwin,Lake Worth,Florida,United States,33467,cmundeng@amazon.com,(561) 9616631
Weissnat-Wilkinson,20,Butternut,Galveston,Texas,United States,77554,clenoxh@columbia.edu,(281) 7785140
Runolfsson Group,0,Bultman,Huntsville,Alabama,United States,35805,lmcgettigani@tmall.com,(256) 7888021
Wyman-Walker,8086,Shopko,Trenton,New Jersey,United States,08608,bcoppenj@mozilla.com,(609) 1705854
"Jerde, Schimmel and Lynch",6772,Northwestern,Greenville,South Carolina,United States,29605,ebonhank@foxnews.com,(864) 6959209
"Heidenreich, Bahringer and Hegmann",7298,Sunfield,Trenton,New Jersey,United States,08695,medgintonl@nba.com,(609) 3308477
Fahey Group,28,Vahlen,Galveston,Texas,United States,77554,jbulcroftm@umn.edu,(281) 7631990
Herman Group,5178,Kim,Lees Summit,Missouri,United States,64082,cjenicekn@creativecommons.org,(816) 2953518
Leffler Group,1441,Trailsway,Santa Fe,New Mexico,United States,87592,fdowdao@dagondesign.com,(505) 4124044
Mann LLC,9462,Grover,Huntington,West Virginia,United States,25770,ccosgreavep@paginegialle.it,(304) 9907633
Wisoky-Stoltenberg,2,Miller,Greensboro,North Carolina,United States,27415,maccumq@cloudflare.com,(336) 7745530
Wolff-Murphy,5495,Gateway,Odessa,Texas,United States,79769,ctejadar@wufoo.com,(432) 3637844
Ziemann Group,08637,Doe Crossing,Minneapolis,Minnesota,United States,55412,tmorettos@timesonline.co.uk,(651) 5590284
"Schumm, Kunze and Lowe",8086,Kennedy,Washington,District of Columbia,United States,20238,trevellt@meetup.com,(202) 2687169
"Collins, Rowe and Schiller",99,Leroy,Mesa,Arizona,United States,85215,kguitonneauu@bizjournals.com,(602) 3304400
Ullrich-Feil,12,Union,San Francisco,California,United States,94116,agwatkinv@yahoo.com,(415) 6838354
"Johnson, Bergnaum and Wiza",6599,Shopko,Spokane,Washington,United States,99215,rkeyndw@51.la,(509) 6395821
Lindgren-Ankunding,2823,Quincy,Pasadena,California,United States,91109,bvaillantx@nsw.gov.au,(818) 9205144
"Lemke, Lind and Trantow",63,Mandrake,Long Beach,California,United States,90840,dstapelsy@nature.com,(562) 4539571
Harber-O'Connell,6080,Oxford,Fort Wayne,Indiana,United States,46857,hgrigsonz@free.fr,(260) 2174770
Hodkiewicz LLC,707,Aberg,Tampa,Florida,United States,33661,cboyes10@mayoclinic.com,(813) 7232297
Cormier LLC,680,Butternut,Milwaukee,Wisconsin,United States,53215,fdrioli11@domainmarket.com,(414) 6032692
Mann-Schroeder,96,Hanson,Denver,Colorado,United States,80279,pwinterburn12@google.fr,(303) 5039142
"Kozey, Lynch and Cummerata",55161,Oriole,Pittsburgh,Pennsylvania,United States,15215,slugton13@goodreads.com,(412) 7997400
"Dietrich, O'Conner and Jacobson",1037,Independence,Oakland,California,United States,94616,rpopland14@oaic.gov.au,(415) 8787548
"Kozey, Ledner and Tromp",01717,Fair Oaks,Mc Keesport,Pennsylvania,United States,15134,mbiasioli15@typepad.com,(412) 1724470
"Grimes, Wilderman and Harber",331,Kings,Jackson,Mississippi,United States,39296,pcostello16@stumbleupon.com,(601) 1131688
Satterfield Group,698,Lakeland,Melbourne,Florida,United States,32919,ygullis17@ifeng.com,(321) 5011758
Howe-Wuckert,61388,Mallory,Ogden,Utah,United States,84409,aearp18@clickbank.net,(801) 6575924
Brakus-Rippin,7559,Bonner,Young America,Minnesota,United States,55564,lmelwall19@economist.com,(952) 7248949
Padberg and Sons,93,Scott,Manchester,New Hampshire,United States,03105,wkeighly1a@house.gov,(603) 5352362
"Aufderhar, Heaney and Stamm",4768,Sycamore,Bakersfield,California,United States,93311,jgibbons1b@wufoo.com,(661) 1766130
Roberts-Weber,621,Banding,Wichita Falls,Texas,United States,76310,bfrude1c@theglobeandmail.com,(940) 7328402
Lueilwitz and Sons,9,Fremont,Aiken,South Carolina,United States,29805,wgilkison1d@paypal.com,(803) 9459649
"Kutch, Dicki and Glover",171,5th,Long Beach,California,United States,90805,brassmann1e@smugmug.com,(323) 2252447
Sporer Group,02004,Gulseth,Lexington,Kentucky,United States,40505,adoumerque1f@mashable.com,(859) 7189963
"VonRueden, Ziemann and Cormier",3,Graceland,Des Moines,Iowa,United States,50330,ejaimez1g@accuweather.com,(515) 6368504
Wyman-Streich,921,Colorado,Honolulu,Hawaii,United States,96815,scapstick1h@edublogs.org,(808) 6479854
Casper LLC,29578,Summit,Santa Fe,New Mexico,United States,87505,dgurry1i@noaa.gov,(505) 9003500
Klocko-Waters,9,Lukken,Stamford,Connecticut,United States,06912,bpresslie1j@cpanel.net,(203) 8864985
"Reynolds, Ruecker and Lakin",075,Westerfield,Yakima,Washington,United States,98907,ahalso1k@wisc.edu,(509) 6869372
Hackett-Bednar,38,Eggendart,Dallas,Texas,United States,75210,mlandeg1l@simplemachines.org,(972) 5752490
Leffler-Hansen,9275,Blue Bill Park,Reno,Nevada,United States,89519,ogergely1m@sitemeter.com,(775) 4912307
Hoppe LLC,34029,Moulton,Kansas City,Missouri,United States,64179,hstennett1n@nydailynews.com,(816) 3942378
Zboncak and Sons,7,Lawn,San Diego,California,United States,92170,cgreenin1o@intel.com,(619) 6352240
"Goyette, Cruickshank and King",3214,Village Green,Fort Wayne,Indiana,United States,46805,acleaveland1p@whitehouse.gov,(260) 5636010
Hyatt-Schmitt,32,Sunfield,San Jose,California,United States,95133,rzukierman1q@dmoz.org,(408) 9278823
Nader-Collins,97769,Schlimgen,Aurora,Illinois,United States,60505,casser1r@wikia.com,(630) 2615388
"Mosciski, Hudson and O'Connell",40,6th,Charlotte,North Carolina,United States,28230,cbasden1s@youtube.com,(704) 1985697
"Wintheiser, Dicki and Lynch",3,Bunker Hill,Arlington,Texas,United States,76004,tluck1t@php.net,(817) 7022111
"Wolf, Turcotte and Hintz",9515,Chive,New York City,New York,United States,10275,bkeelin1u@sina.com.cn,(212) 8329338
"Klein, Koch and Hermann",64,International,Cincinnati,Ohio,United States,45264,tliddyard1v@taobao.com,(513) 4733823
Zulauf Group,3,Luster,Warren,Michigan,United States,48092,mwadelin1w@devhub.com,(586) 9214597
Cole and Sons,81448,Logan,Hollywood,Florida,United States,33023,tleber1x@linkedin.com,(954) 5818424
"Renner, Little and Reynolds",7654,Fairview,Evansville,Indiana,United States,47725,kproppers1y@icq.com,(812) 5005249
McKenzie-Reichel,2375,Walton,Fort Lauderdale,Florida,United States,33336,sjakubowicz1z@hexun.com,(754) 1219590
"Wisozk, Price and Rice",68239,Meadow Valley,Seattle,Washington,United States,98195,bfilipchikov20@mlb.com,(206) 5054275
VonRueden Inc,76,Moose,Phoenix,Arizona,United States,85072,smuzzi21@rakuten.co.jp,(602) 1191220
"MacGyver, Ledner and Prosacco",0597,Loomis,Houston,Texas,United States,77070,ccurtayne22@joomla.org,(281) 7297963
Lebsack Inc,82852,Susan,Memphis,Tennessee,United States,38104,gbird23@harvard.edu,(615) 5858732
Klein-Kulas,44733,Messerschmidt,New York City,New York,United States,10115,ksalzburg24@etsy.com,(212) 1289498
Balistreri-Gleason,816,Continental,San Jose,California,United States,95133,taharoni25@indiatimes.com,(408) 2384821
"Roob, Reichert and Towne",92,Bay,Salem,Oregon,United States,97312,lrany26@google.cn,(971) 2022578
Moen LLC,7,Glendale,Alexandria,Virginia,United States,22309,efrankema27@google.co.uk,(703) 5497015
"Wisozk, Goldner and Effertz",1,Wayridge,Youngstown,Ohio,United States,44555,zgeistmann28@4shared.com,(330) 6756005
Lockman-Anderson,56854,Lien,New York City,New York,United States,10115,sfriese29@ed.gov,(212) 2868381
Daugherty Inc,1491,Orin,Rochester,New York,United States,14646,fchave2a@technorati.com,(585) 1840862
Mann Inc,69,Vera,Knoxville,Tennessee,United States,37939,bwanley2b@wordpress.com,(865) 6431550
"Skiles, Turcotte and Fisher",2,North,Philadelphia,Pennsylvania,United States,19131,ttrubshawe2c@tripod.com,(215) 1595878
King-O'Reilly,35297,Del Mar,Pittsburgh,Pennsylvania,United States,15220,mhachette2d@arstechnica.com,(412) 7033166
Kerluke Group,601,Susan,Columbus,Mississippi,United States,39705,fkeating2e@ucsd.edu,(662) 1474932
Larson LLC,785,Lake View,Montgomery,Alabama,United States,36114,cbounde2f@oracle.com,(334) 2734071
Murazik-Franecki,48758,Clemons,Macon,Georgia,United States,31217,ctimoney2g@paginegialle.it,(478) 2457147
"Jacobson, Torphy and Nienow",21,Bunting,Orlando,Florida,United States,32813,sgrigorian2h@nyu.edu,(321) 4968054
"Jacobi, Rosenbaum and Spinka",65,Ridgeway,Lawrenceville,Georgia,United States,30045,rjeune2i@intel.com,(404) 6094728
Runolfsson and Sons,7608,Fair Oaks,Evansville,Indiana,United States,47705,wletchford2j@hibu.com,(812) 9500419
"Jones, Bartell and Beer",071,Lunder,New York City,New York,United States,10009,tgipp2k@parallels.com,(718) 5683840
Bruen-Stamm,52,Norway Maple,Miami,Florida,United States,33233,fhaggis2l@alexa.com,(786) 5666414
"Stehr, Medhurst and Larkin",91129,Hallows,Springfield,Virginia,United States,22156,mbushill2m@nature.com,(571) 8561849
Mraz LLC,70632,Elka,Toledo,Ohio,United States,43656,bmccloud2n@cdc.gov,(419) 8852175
"Bernier, Emard and Bosco",6493,Aberg,Atlanta,Georgia,United States,30301,lwhitnell2o@addthis.com,(404) 1435076
Simonis-Larson,4501,Ronald Regan,Racine,Wisconsin,United States,53405,fderl2p@fastcompany.com,(262) 3113652
"Hammes, Schneider and Reinger",0,Sheridan,Beaumont,Texas,United States,77705,mcobbe2q@dion.ne.jp,(409) 3474148
Quigley and Sons,426,Mcguire,Miami,Florida,United States,33196,gshankster2r@tumblr.com,(786) 6249109
"Lakin, Kling and Bernhard",53068,Declaration,Kingsport,Tennessee,United States,37665,jsavidge2s@ucla.edu,(423) 6498502
"Spinka, Anderson and Daniel",1308,Fremont,Midland,Texas,United States,79705,ghaukey2t@tinyurl.com,(432) 1346603
O'Keefe LLC,72686,Saint Paul,Miami,Florida,United States,33233,ydecarolis2u@cafepress.com,(786) 5935570
Kemmer-Koepp,12987,Rutledge,North Little Rock,Arkansas,United States,72118,cselwood2v@exblog.jp,(501) 4708095
Hoppe-Wyman,2203,Hazelcrest,Marietta,Georgia,United States,30066,tbleything2w@loc.gov,(770) 3501960
"Cummings, Daugherty and Muller",8679,Express,Birmingham,Alabama,United States,35225,sdinkin2x@youtu.be,(205) 6087750
Corwin and Sons,609,Holmberg,Daytona Beach,Florida,United States,32123,jgoom2y@springer.com,(386) 6227941
"Block, Crona and Orn",64356,Gerald,Lubbock,Texas,United States,79452,bgilloran2z@google.ru,(806) 2926097
"Powlowski, Beer and Sipes",68100,Elmside,Saint Louis,Missouri,United States,63131,flangelaan30@psu.edu,(636) 1567178
Maggio-Reichert,2249,Clarendon,Knoxville,Tennessee,United States,37919,dgammett31@twitter.com,(865) 5326240
"Funk, Reynolds and Rutherford",066,Ludington,Austin,Texas,United States,78759,cchifney32@va.gov,(512) 5755986
Carter LLC,04634,Evergreen,Sacramento,California,United States,94291,scoldwell33@de.vu,(916) 8939658
"Wiza, Beatty and Tillman",23,Debs,Baltimore,Maryland,United States,21239,cgoodfellowe34@freewebs.com,(410) 8323815
"Mante, Gusikowski and Labadie",65292,Toban,El Paso,Texas,United States,88569,kdufer35@rakuten.co.jp,(915) 2696526
Waters-Purdy,1757,Tennyson,Grand Forks,North Dakota,United States,58207,dbraemer36@oaic.gov.au,(701) 7822137
Flatley Group,012,Fulton,Dallas,Texas,United States,75367,mbinge37@nifty.com,(214) 9104687
"Schoen, Treutel and Casper",9,Oak Valley,Mobile,Alabama,United States,36622,emelburg38@chronoengine.com,(251) 3758078
Morissette-Dickinson,0837,Vera,Albuquerque,New Mexico,United States,87121,cmoreton39@example.com,(505) 4220953
Towne LLC,46082,Debra,Greenville,South Carolina,United States,29605,pknutsen3a@kickstarter.com,(864) 9041321
"Morissette, West and Price",87273,Ridgeview,Miami,Florida,United States,33175,mellor3b@google.com.br,(305) 1951102
Thompson-Padberg,37,Old Gate,Waco,Texas,United States,76705,bglas3c@godaddy.com,(254) 7293862
Kuvalis Inc,77053,Glendale,Miami,Florida,United States,33180,wchaim3d@biblegateway.com,(786) 4816329
"Cormier, Mertz and Barton",076,Blaine,Fort Worth,Texas,United States,76198,ppumfrett3e@twitter.com,(682) 3035339
Nitzsche-Stracke,4879,Pierstorff,Brooklyn,New York,United States,11254,briceards3f@freewebs.com,(212) 1010864
Oberbrunner and Sons,3281,Canary,Mc Keesport,Pennsylvania,United States,15134,dastle3g@abc.net.au,(412) 9964263
"Kuphal, Runolfsson and Olson",6961,Clarendon,Marietta,Georgia,United States,30061,mmackean3h@theguardian.com,(770) 6287497
Casper-Ullrich,20731,Moulton,Austin,Texas,United States,78710,lkanwell3i@springer.com,(512) 6039435
Bayer-Towne,9650,Logan,Irvine,California,United States,92710,kdungay3j@businessinsider.com,(714) 1491255
Ziemann-Orn,52115,Manley,Seattle,Washington,United States,98195,lmarunchak3k@ox.ac.uk,(206) 8369740
Jacobson-Waters,067,Kenwood,Columbus,Ohio,United States,43240,aathelstan3l@who.int,(614) 5086097
Kling and Sons,06735,Arapahoe,Houston,Texas,United States,77045,thuncoot3m@vistaprint.com,(713) 4597299
Larson Inc,16834,Morrow,Saint Paul,Minnesota,United States,55127,ttemby3n@nih.gov,(651) 3491289
Marquardt and Sons,46194,Holmberg,Atlanta,Georgia,United States,31136,jmarshman3o@blogs.com,(404) 1267723
"Koelpin, Torp and Farrell",28,Mallard,New Haven,Connecticut,United States,06538,vlorroway3p@phoca.cz,(203) 4517419
Schmeler-Rodriguez,706,Gale,Anchorage,Alaska,United States,99522,blantaph3q@slideshare.net,(907) 6595010
"Stanton, Yundt and Anderson",509,Mccormick,Miami,Florida,United States,33185,nheindrich3r@nymag.com,(305) 6929172
"Price, Smitham and Kessler",402,Fair Oaks,Las Vegas,Nevada,United States,89193,dlinford3s@cam.ac.uk,(702) 5377870
Lesch Inc,16,Emmet,Baltimore,Maryland,United States,21216,goshields3t@fda.gov,(410) 5590255
Rowe LLC,0,Harbort,Santa Monica,California,United States,90410,vrusted3u@salon.com,(310) 7424883
Adams-Howell,447,Comanche,Phoenix,Arizona,United States,85099,mmundle3v@whitehouse.gov,(602) 7322556
"Volkman, Schowalter and Champlin",084,Westend,San Antonio,Texas,United States,78215,dmuro3w@technorati.com,(210) 7998298
Jakubowski-Nikolaus,43679,Lakeland,Ocala,Florida,United States,34474,ldrissell3x@berkeley.edu,(352) 5699739
"Ryan, Homenick and Witting",54,Toban,Harrisburg,Pennsylvania,United States,17121,ncounihan3y@tinypic.com,(717) 6816205
"Yundt, Bechtelar and Waelchi",90,Mosinee,San Jose,California,United States,95113,ngosney3z@cargocollective.com,(650) 9911117
Stokes-Keebler,5200,Cottonwood,Young America,Minnesota,United States,55551,kdecristoforo40@usatoday.com,(952) 5487975
Rosenbaum LLC,6042,Jackson,Madison,Wisconsin,United States,53790,epurple41@ft.com,(608) 5638233
Quigley and Sons,8772,Shopko,West Hartford,Connecticut,United States,06127,gdoby42@forbes.com,(860) 2778301
Ferry-Fisher,6,Columbus,Dallas,Texas,United States,75372,bglabach43@csmonitor.com,(214) 1372261
"Swift, Macejkovic and Hilll",446,Warrior,Pueblo,Colorado,United States,81015,mwathell44@java.com,(719) 1930825
Watsica Group,723,Surrey,Mount Vernon,New York,United States,10557,hklausen45@edublogs.org,(914) 3831891
"Wunsch, Willms and Prosacco",2,Montana,Fullerton,California,United States,92835,edowdeswell46@reverbnation.com,(714) 3536884
Lang Inc,65,Northfield,Houston,Texas,United States,77040,hedgeley47@devhub.com,(832) 7318424
Bartoletti-Shields,00,Farragut,Toledo,Ohio,United States,43635,amcalester48@clickbank.net,(419) 2902493
Kilback-Mann,5,Village Green,Corpus Christi,Texas,United States,78405,jjickells49@vkontakte.ru,(361) 8619450
Champlin LLC,54,Boyd,Moreno Valley,California,United States,92555,rrubinowitch4a@dell.com,(951) 3851766
Koss-Roob,8652,Sunfield,Toledo,Ohio,United States,43610,clowne4b@columbia.edu,(419) 8014837
Heller-Wisozk,7,Carioca,Mobile,Alabama,United States,36616,akoppeck4c@nsw.gov.au,(251) 4070199
Satterfield-Kohler,5,Heath,Stamford,Connecticut,United States,06922,cbream4d@msu.edu,(203) 6093395
Konopelski LLC,2398,Claremont,Phoenix,Arizona,United States,85062,cpaulton4e@sciencedaily.com,(602) 4189347
Adams-Erdman,38,Macpherson,Apache Junction,Arizona,United States,85219,cmillett4f@ted.com,(480) 3351532
Gulgowski LLC,7,Independence,Columbia,Missouri,United States,65211,fdovidaitis4g@mozilla.com,(573) 1951150
Kshlerin Inc,9997,Westend,Largo,Florida,United States,33777,sguerrero4h@yellowbook.com,(727) 3293131
Berge LLC,21,Sunbrook,Saint Paul,Minnesota,United States,55103,dstaunton4i@umn.edu,(651) 4618847
"Kuhn, Glover and Romaguera",8,Surrey,Schenectady,New York,United States,12305,lsmaleman4j@state.gov,(518) 8826564
"Greenholt, O'Reilly and Feest",56,Brown,Honolulu,Hawaii,United States,96810,mcarmel4k@flavors.me,(808) 8821825
Lang Group,61562,Barby,Flushing,New York,United States,11355,mkemme4l@admin.ch,(917) 4929789
Yundt and Sons,4,Surrey,Nashville,Tennessee,United States,37245,cgeorgeou4m@wsj.com,(615) 3122819
"Lebsack, Mosciski and D'Amore",88514,Heffernan,Boulder,Colorado,United States,80328,vbeeres4n@ameblo.jp,(303) 6244252
Doyle LLC,78,Garrison,Lees Summit,Missouri,United States,64082,fakeherst4o@ftc.gov,(816) 3757439
Spinka-Pollich,3905,Truax,Hampton,Virginia,United States,23668,rreuven4p@reference.com,(757) 9636443
"Yost, Ankunding and Towne",48,Birchwood,Pomona,California,United States,91797,blewins4q@cmu.edu,(909) 4111795
"Hilll, Lesch and O'Keefe",190,Vernon,Naples,Florida,United States,33961,aruffy4r@miibeian.gov.cn,(305) 2948068
Donnelly Inc,81284,Village Green,Jefferson City,Missouri,United States,65105,vpaulich4s@a8.net,(573) 8004661
"Blick, Stamm and Reinger",71,Forest,Irvine,California,United States,92710,sbjorkan4t@apache.org,(714) 5690431
Nader and Sons,43,Melby,Fort Wayne,Indiana,United States,46896,rfalconer4u@163.com,(260) 6733006
Kuhn-Beatty,63542,Forest,Tulsa,Oklahoma,United States,74149,tgimblet4v@desdev.cn,(918) 4298090
Tromp LLC,1,Pennsylvania,Jackson,Mississippi,United States,39204,gcamin4w@ucoz.com,(601) 4069132
"O'Hara, Considine and Hilll",06193,Brickson Park,Philadelphia,Pennsylvania,United States,19151,bjerzykiewicz4x@cam.ac.uk,(610) 2029224
"Jakubowski, Rempel and Reinger",20,Merchant,Richmond,Virginia,United States,23293,apedrielli4y@imdb.com,(804) 4660468
Luettgen Inc,465,Huxley,Phoenix,Arizona,United States,85045,btolson4z@wisc.edu,(602) 7480979
"Block, Lesch and McLaughlin",46085,Ruskin,Baltimore,Maryland,United States,21282,slamie50@nbcnews.com,(410) 2300632
"Schoen, O'Reilly and Wolff",3,Burrows,Atlanta,Georgia,United States,30368,ndrinkwater51@intel.com,(404) 7850383
Dooley and Sons,2869,Hoard,Wichita,Kansas,United States,67260,cquerree52@behance.net,(316) 3354554
Schmitt LLC,19,Vahlen,Los Angeles,California,United States,90050,cjosebury53@sbwire.com,(213) 6237751
"Balistreri, Jacobs and Kovacek",8,Ridge Oak,New Orleans,Louisiana,United States,70165,rbreeder54@smh.com.au,(504) 4539763
"Wyman, Gleason and McCullough",9,Melody,Miami,Florida,United States,33185,rrow55@stanford.edu,(305) 7627893
Conroy-Gorczany,5240,Clove,Hollywood,Florida,United States,33023,dlove56@ucla.edu,(954) 4839312
Schoen LLC,6639,La Follette,Duluth,Minnesota,United States,55811,btremontana57@mtv.com,(218) 3842244
"VonRueden, Emmerich and Rice",64,Hanson,Houston,Texas,United States,77060,jsallans58@wisc.edu,(281) 2081930
Funk Group,6,Milwaukee,Knoxville,Tennessee,United States,37931,ematuszyk59@jugem.jp,(865) 5827255
"Hirthe, Kuhn and Pfeffer",2160,Surrey,Norman,Oklahoma,United States,73071,dkingsmill5a@illinois.edu,(405) 8246815
"Mante, Reilly and Ferry",04856,Farmco,Metairie,Louisiana,United States,70005,pelsegood5b@pbs.org,(504) 8919288
"Ruecker, Thompson and Harber",39,Pawling,Paterson,New Jersey,United States,07522,lraspison5c@reverbnation.com,(973) 9884751
"Raynor, Blick and Krajcik",86977,Loftsgordon,Springfield,Illinois,United States,62776,bmacarthur5d@irs.gov,(217) 3970183
Wiegand-Grimes,12,Eastwood,Greensboro,North Carolina,United States,27425,crepper5e@epa.gov,(336) 1885339
"Murazik, Kshlerin and Lehner",5085,Browning,Huntsville,Alabama,United States,35810,jber5f@wikia.com,(256) 9524205
Koepp-Lockman,21054,Shasta,Miami,Florida,United States,33153,tflowitt5g@umich.edu,(786) 1061472
"Gibson, Hackett and Medhurst",31316,Barnett,Louisville,Kentucky,United States,40233,epeyton5h@wp.com,(502) 9292698
"Legros, Grimes and Marks",5,Redwing,New Haven,Connecticut,United States,06538,dheyns5i@gov.uk,(203) 3878024
McKenzie Group,98,Blue Bill Park,Kansas City,Missouri,United States,64136,khardwich5j@answers.com,(816) 2508225
Roberts Group,399,Meadow Valley,Fairfax,Virginia,United States,22036,rlalor5k@timesonline.co.uk,(571) 8595324
MacGyver-Walker,3895,Main,Tampa,Florida,United States,33686,nfullwood5l@census.gov,(813) 9407556
Larson and Sons,3127,Kensington,Huntington,West Virginia,United States,25726,rroux5m@themeforest.net,(304) 7564087
Towne LLC,44,Fallview,Philadelphia,Pennsylvania,United States,19115,dwilcott5n@whitehouse.gov,(267) 9789020
Conroy Group,77299,Surrey,Tallahassee,Florida,United States,32314,tcotesford5o@macromedia.com,(850) 4456752
"Padberg, Friesen and Gusikowski",184,Mallory,Newport Beach,California,United States,92662,atrazzi5p@cdc.gov,(949) 6926784
"Lemke, Hansen and McGlynn",40946,Buena Vista,Springfield,Illinois,United States,62794,akennermann5q@noaa.gov,(217) 6827243
Gibson LLC,77,Killdeer,Atlanta,Georgia,United States,30343,pgroucock5r@phoca.cz,(404) 3352309
Nolan-Tillman,5,Shoshone,Kansas City,Missouri,United States,64142,mragsdale5s@buzzfeed.com,(816) 8093618
Huels-Gleichner,1258,Westend,Indianapolis,Indiana,United States,46278,rpepperd5t@mail.ru,(317) 7670959
"Bednar, Beer and Pagac",9023,Saint Paul,Brooklyn,New York,United States,11231,sslocket5u@vinaora.com,(718) 4997913
Thiel Group,5,Village,Boise,Idaho,United States,83705,iyouell5v@slate.com,(208) 9226005
"MacGyver, Baumbach and Weber",64,Rutledge,Morgantown,West Virginia,United States,26505,vharce5w@europa.eu,(304) 6669457
Ankunding-O'Reilly,59359,Cascade,Saint Paul,Minnesota,United States,55172,lbusher5x@wikia.com,(651) 6478713
Kihn and Sons,99,Montana,Columbus,Ohio,United States,43210,lkingsbury5y@icq.com,(614) 7467735
Wuckert LLC,44,Graceland,New Brunswick,New Jersey,United States,08922,sschistl5z@odnoklassniki.ru,(732) 8874493
Murphy Inc,83518,Hollow Ridge,Oakland,California,United States,94605,gwattinham60@ustream.tv,(510) 2959701
"Wehner, Lynch and Huel",6686,Cordelia,Harrisburg,Pennsylvania,United States,17140,mgentsch61@mapy.cz,(717) 9244158
Balistreri and Sons,9966,Johnson,Baton Rouge,Louisiana,United States,70883,plipprose62@mtv.com,(225) 6771714
Hudson-Berge,49280,Reinke,El Paso,Texas,United States,88558,rgiacobbo63@illinois.edu,(915) 1152726
Breitenberg-Stamm,914,Pankratz,Huntsville,Alabama,United States,35895,dfolcarelli64@cnbc.com,(256) 2851028
Koepp Inc,85,Basil,Omaha,Nebraska,United States,68179,bpeert65@mapy.cz,(402) 6427131
"Kub, Ziemann and Ondricka",6,Meadow Ridge,Oakland,California,United States,94616,lgerding66@reddit.com,(510) 7338012
"Larkin, Zulauf and Trantow",90150,Nova,Birmingham,Alabama,United States,35242,hclyne67@cam.ac.uk,(205) 2808135
Gerlach-Lebsack,3114,Tony,Juneau,Alaska,United States,99812,jsabate68@baidu.com,(907) 2910560
Dickens-Dickinson,664,Charing Cross,Houston,Texas,United States,77085,agiacaponi69@t-online.de,(281) 7461781
Schulist and Sons,55,School,Seminole,Florida,United States,34642,vmutter6a@amazon.co.uk,(941) 4822811
Larkin-Kirlin,452,Clyde Gallagher,Dallas,Texas,United States,75246,hlacase6b@nationalgeographic.com,(214) 6247110
Hamill Inc,32085,Gina,Toledo,Ohio,United States,43615,mbarker6c@yelp.com,(419) 6159395
"Stroman, Wunsch and Hudson",2,Carpenter,Springfield,Ohio,United States,45505,mmartineau6d@webnode.com,(937) 6232758
Simonis-Roberts,1,Crest Line,Raleigh,North Carolina,United States,27621,ltombling6e@sfgate.com,(919) 7821029
"Pfannerstill, Baumbach and Quigley",82238,Fisk,Syracuse,New York,United States,13210,vboik6f@shop-pro.jp,(315) 5917965
Armstrong Inc,91827,Namekagon,Port Washington,New York,United States,11054,alamminam6g@ustream.tv,(516) 1670174
Upton LLC,120,Canary,Tampa,Florida,United States,33686,ctoffanelli6h@prnewswire.com,(813) 5058502
Bernier LLC,5,1st,Salt Lake City,Utah,United States,84145,nfranks6i@storify.com,(801) 6536920
"Barton, McClure and Morar",2894,Atwood,Greensboro,North Carolina,United States,27425,pdickey6j@is.gd,(336) 7165407
Tremblay Group,29871,Anhalt,Saint Paul,Minnesota,United States,55115,cshields6k@who.int,(763) 6802758
Pouros-Cormier,22,Graedel,Chicago,Illinois,United States,60609,gbonnick6l@nymag.com,(773) 7825524
"MacGyver, Hintz and Casper",07,Artisan,Amarillo,Texas,United States,79118,gbigglestone6m@trellian.com,(806) 8768290
Ankunding-Reilly,2,Laurel,Warren,Ohio,United States,44485,hchazette6n@nydailynews.com,(330) 4572565
Zieme-Farrell,691,Quincy,Bethesda,Maryland,United States,20892,atabart6o@state.gov,(301) 8800095
"Kuhic, Thiel and Hills",8332,Dixon,Greenville,South Carolina,United States,29605,crops6p@hatena.ne.jp,(864) 9489107
Greenfelder-Fahey,910,High Crossing,Kansas City,Kansas,United States,66160,abrusle6q@washingtonpost.com,(913) 6258173
"Schamberger, Hoeger and Jacobson",10,Loeprich,Dallas,Texas,United States,75310,sruspine6r@ameblo.jp,(214) 7960351
Bechtelar-Pollich,6118,Glacier Hill,Birmingham,Alabama,United States,35290,gmccaghan6s@forbes.com,(205) 8622370
"Greenfelder, Boyer and O'Hara",856,Jana,Cincinnati,Ohio,United States,45271,ddjekovic6t@ehow.com,(513) 1161066
Pacocha-Leffler,2983,Amoth,Columbus,Ohio,United States,43220,twalicki6u@un.org,(614) 3963156
Cronin Inc,82615,Sage,Los Angeles,California,United States,90060,edyble6v@ibm.com,(323) 5937419
King-Champlin,92090,Stephen,El Paso,Texas,United States,88579,bkellie6w@go.com,(915) 9692561
Daniel-Heaney,17,Bashford,Decatur,Georgia,United States,30033,egoning6x@pcworld.com,(770) 3223724
Hirthe-Thompson,00,3rd,Gainesville,Florida,United States,32610,cpeggrem6y@vk.com,(352) 7587736
Gusikowski Inc,82960,Village,Boulder,Colorado,United States,80305,lbirdsey6z@dedecms.com,(303) 3595219
Schultz Group,5,Meadow Ridge,Washington,District of Columbia,United States,20057,dshiell70@usnews.com,(202) 7915339
"Kirlin, Brekke and Pollich",94535,Westport,Redwood City,California,United States,94064,cconigsby71@discovery.com,(650) 2764159
Kutch-Kuphal,396,Reindahl,Lansing,Michigan,United States,48901,ndutchburn72@ucoz.com,(517) 6922733
Stoltenberg-Pagac,619,Chive,Los Angeles,California,United States,90045,nmcgloin73@liveinternet.ru,(323) 7951031
Crona-White,92,Ryan,New Orleans,Louisiana,United States,70179,awaliszek74@elegantthemes.com,(504) 1224379
"Hodkiewicz, Muller and Nienow",47,Golf,Amarillo,Texas,United States,79118,dwinstanley75@netlog.com,(806) 3068694
Wunsch-Zieme,12712,Eagle Crest,Mc Keesport,Pennsylvania,United States,15134,bstroband76@admin.ch,(412) 3079277
"Nienow, Abernathy and Bernier",0,Lyons,Littleton,Colorado,United States,80127,kmaccoughen77@hexun.com,(720) 8045843
Crooks Inc,01000,Sheridan,Alpharetta,Georgia,United States,30022,amenpes78@joomla.org,(678) 7335570
Hauck Group,029,Maywood,Washington,District of Columbia,United States,20580,gjillitt79@vinaora.com,(202) 8183499
Batz Inc,8981,Kim,Minneapolis,Minnesota,United States,55480,rburgoine7a@blogs.com,(612) 1756672
Bailey Group,91581,Melody,Rochester,New York,United States,14614,calfonsetti7b@t-online.de,(315) 8437622
Anderson-Torp,2,Butternut,Palm Bay,Florida,United States,32909,jpeters7c@omniture.com,(561) 3309802
"Metz, Nikolaus and Harvey",40,Quincy,Saint Paul,Minnesota,United States,55123,akivlin7d@oracle.com,(952) 9962563
Kuphal-Bosco,938,Cambridge,Grand Rapids,Michigan,United States,49510,nrudge7e@admin.ch,(616) 5060511
"Little, Kautzer and Gaylord",031,Onsgard,Milwaukee,Wisconsin,United States,53205,hthornton7f@europa.eu,(414) 1644145
Jacobi and Sons,052,Kinsman,Providence,Rhode Island,United States,02905,awragg7g@rakuten.co.jp,(401) 7458735
Rau and Sons,93544,Pawling,Jamaica,New York,United States,11470,mcutchey7h@csmonitor.com,(718) 5959242
Goldner-Spencer,38,Spohn,Bradenton,Florida,United States,34205,hglowach7i@bizjournals.com,(941) 3672576
Conn and Sons,8124,Express,Los Angeles,California,United States,90065,sshovel7j@sakura.ne.jp,(213) 7690491
"Thompson, Towne and Oberbrunner",35,Nancy,Bloomington,Illinois,United States,61709,aeddison7k@webeden.co.uk,(309) 9309989
Schaefer-Muller,17209,Pleasure,Portland,Oregon,United States,97240,rstocks7l@photobucket.com,(971) 6889801
Jaskolski-Rolfson,801,Arizona,Cincinnati,Ohio,United States,45296,afaulks7m@nps.gov,(513) 8010914
Bruen-Yundt,63412,Bunting,Birmingham,Alabama,United States,35279,acowden7n@answers.com,(205) 3182878
"Leffler, Schimmel and Abernathy",5,Melby,Lincoln,Nebraska,United States,68583,tbister7o@techcrunch.com,(402) 3969963
Greenholt-Wilkinson,448,Cascade,Las Vegas,Nevada,United States,89120,jwreight7p@google.com.hk,(702) 8186409
"Leuschke, Howell and Wolf",3763,Russell,Orange,California,United States,92668,nneiland7q@joomla.org,(858) 7848688
Swift-Batz,765,Tennessee,Oklahoma City,Oklahoma,United States,73129,hcowdry7r@cisco.com,(405) 9591848
Gleichner-Shields,93398,2nd,North Las Vegas,Nevada,United States,89036,mhowchin7s@webeden.co.uk,(702) 9911715
Effertz-Breitenberg,0,Merrick,Pasadena,Texas,United States,77505,ldayly7t@virginia.edu,(713) 7562066
Aufderhar-Buckridge,83244,Little Fleur,Pasadena,California,United States,91131,jhickinbottom7u@howstuffworks.com,(626) 9648943
"Marvin, Wintheiser and Borer",957,4th,Migrate,Kentucky,United States,41905,cgrigor7v@ihg.com,(502) 7345039
Lynch-O'Kon,973,Badeau,Paterson,New Jersey,United States,07544,aralph7w@imageshack.us,(862) 9085390
Krajcik-Mills,458,Lighthouse Bay,Glendale,Arizona,United States,85311,ghastings7x@wufoo.com,(602) 6484398
"Yost, Collins and Fay",4,Almo,Fayetteville,North Carolina,United States,28314,bblick7y@gravatar.com,(910) 7923741
"Carroll, Sauer and Skiles",4009,Manufacturers,Columbia,South Carolina,United States,29203,zcaret7z@t.co,(803) 2745850
Von-Gerhold,419,Pearson,Washington,District of Columbia,United States,20073,mmeenan80@facebook.com,(202) 3328415
"Johnson, Hansen and Hermiston",49517,Pond,Las Vegas,Nevada,United States,89115,tlindhe81@shop-pro.jp,(702) 9206117
Wisoky-Blick,18843,Homewood,Huntsville,Alabama,United States,35895,hjacmar82@hud.gov,(256) 4598329
"MacGyver, Roob and Stark",1,Johnson,Seattle,Washington,United States,98140,tastie83@fotki.com,(206) 5440272
"Wiegand, Pacocha and Larkin",1904,Steensland,El Paso,Texas,United States,79977,istafford84@sina.com.cn,(915) 2869479
"Dicki, Grady and Howell",17487,Monterey,Atlanta,Georgia,United States,30328,ppeyzer85@disqus.com,(404) 7888720
"Hudson, Hodkiewicz and Feeney",509,Longview,West Palm Beach,Florida,United States,33405,wdruhan86@wikia.com,(772) 6178462
"Bartell, Brown and Kozey",0,Wayridge,San Angelo,Texas,United States,76905,auff87@aboutads.info,(325) 1084568
"Paucek, Schulist and Wehner",1,Warner,Houston,Texas,United States,77015,llofthouse88@so-net.ne.jp,(281) 9067052
"Schultz, Hickle and Kuvalis",0,Raven,Lynn,Massachusetts,United States,01905,spiesold89@wunderground.com,(617) 8573330
"Gutmann, Daugherty and Schmidt",4,Kinsman,Jacksonville,Florida,United States,32209,ljoules8a@examiner.com,(904) 6144855
"Gottlieb, Sauer and Kihn",547,Holmberg,San Jose,California,United States,95155,lgautrey8b@state.gov,(408) 7480810
Marquardt LLC,11395,Hanover,Jeffersonville,Indiana,United States,47134,dstarcks8c@wikipedia.org,(812) 6242147
Buckridge Inc,8,Fisk,Carol Stream,Illinois,United States,60158,kgiddy8d@earthlink.net,(309) 3590546
Ritchie Inc,64170,Gale,Erie,Pennsylvania,United States,16565,cgall8e@altervista.org,(814) 9570211
Bashirian-Crooks,00,Swallow,Bloomington,Indiana,United States,47405,ahoopper8f@prnewswire.com,(812) 8943792
"Thompson, Rogahn and Prosacco",18,Basil,Los Angeles,California,United States,90060,bsloley8g@netscape.com,(323) 6215958
"Orn, Gorczany and Williamson",55482,Lunder,Tacoma,Washington,United States,98481,lforsard8h@pcworld.com,(253) 6127449
"Dare, Barrows and Grant",851,Tony,Buffalo,New York,United States,14233,kdreher8i@tamu.edu,(716) 7183070
Labadie Group,39035,Lunder,Richmond,Virginia,United States,23220,ggeldard8j@hatena.ne.jp,(804) 5127566
Rohan-Bogan,51,Lakewood,Seattle,Washington,United States,98133,hthomson8k@patch.com,(206) 2717866
"Nolan, Weber and Sawayn",424,Tennessee,Madison,Wisconsin,United States,53716,tlendon8l@opensource.org,(608) 9062410
Aufderhar-Corkery,0,Roth,San Antonio,Texas,United States,78210,mgrishinov8m@cnn.com,(210) 2953178
Schuster and Sons,4,Forest Run,Worcester,Massachusetts,United States,01605,sgodar8n@xrea.com,(508) 3291248
Stamm and Sons,4304,Stephen,San Diego,California,United States,92186,stremlett8o@wunderground.com,(619) 8680332
Marvin-Conn,32,Oak Valley,Lawrenceville,Georgia,United States,30045,fwollacott8p@economist.com,(404) 6428032
Kirlin-Lockman,745,Red Cloud,Detroit,Michigan,United States,48206,jfroud8q@webeden.co.uk,(734) 1224764
Pagac-Cremin,077,Eagle Crest,Utica,New York,United States,13505,dmcgilvary8r@hc360.com,(315) 2963976
"Kertzmann, Botsford and Witting",72248,Vera,Denver,Colorado,United States,80243,rogelsby8s@dyndns.org,(303) 7406675
"Wisozk, Hartmann and Denesik",203,Talmadge,Loretto,Minnesota,United States,55598,lfigg8t@merriam-webster.com,(763) 1824300
"Bernhard, McKenzie and Watsica",2914,Northridge,Fort Worth,Texas,United States,76162,lhenze8u@wunderground.com,(682) 6042160
"Hodkiewicz, Morissette and Crist",7738,Spohn,Buffalo,New York,United States,14225,klowson8v@stanford.edu,(716) 5848578
Willms-Mante,9728,Springs,South Bend,Indiana,United States,46620,hgoozee8w@slate.com,(574) 6156309
Shields Group,2942,Colorado,Anchorage,Alaska,United States,99512,rlarciere8x@google.co.uk,(907) 7733375
"Pagac, Hills and Powlowski",7,Crowley,Norcross,Georgia,United States,30092,acockshtt8y@facebook.com,(678) 2359939
"Effertz, Dietrich and Homenick",6,Carioca,Milwaukee,Wisconsin,United States,53285,jradmer8z@yahoo.com,(414) 5075637
O'Reilly-Donnelly,605,Farmco,Washington,District of Columbia,United States,20392,jorrow90@linkedin.com,(202) 5050393
Gislason Inc,37,Briar Crest,Santa Monica,California,United States,90405,cbortolozzi91@economist.com,(310) 8163705
Kuvalis-Torphy,803,Kings,Sacramento,California,United States,94291,amcgenn92@slate.com,(916) 9832590
"Breitenberg, Stroman and Luettgen",93465,School,Oklahoma City,Oklahoma,United States,73124,vweond93@baidu.com,(405) 6894426
"Dickinson, Schmitt and Kuhic",9208,Brown,Philadelphia,Pennsylvania,United States,19125,olambourn94@theglobeandmail.com,(215) 5421134
Hauck-Tremblay,42,Valley Edge,Amarillo,Texas,United States,79116,svandenbroek95@nature.com,(806) 5292343
Upton and Sons,791,Clyde Gallagher,Houston,Texas,United States,77095,emcelree96@sina.com.cn,(281) 7084678
Champlin-Schiller,0,Westend,El Paso,Texas,United States,88553,sandras97@ezinearticles.com,(915) 5350420
Funk Group,145,Johnson,High Point,North Carolina,United States,27264,nalywin98@liveinternet.ru,(336) 1896256
Huel-Jenkins,35554,Dwight,Phoenix,Arizona,United States,85030,dhurtado99@edublogs.org,(602) 9969821
Auer and Sons,2788,Chive,Minneapolis,Minnesota,United States,55446,pprendergast9a@hhs.gov,(612) 3602426
Little Inc,75,Saint Paul,Great Neck,New York,United States,11024,asevitt9b@businesswire.com,(516) 9389106
O'Connell-Gaylord,5858,Luster,Wichita,Kansas,United States,67205,smcterlagh9c@examiner.com,(316) 2666918
Crona-Torp,24530,Canary,Boston,Massachusetts,United States,02109,mandre9d@shareasale.com,(617) 2002680
Mitchell-Kilback,011,Forster,Boca Raton,Florida,United States,33499,fpenk9e@earthlink.net,(561) 8009989
"Auer, Deckow and Marks",1,Talisman,Los Angeles,California,United States,90189,jwildor9f@state.tx.us,(213) 9964076
"Hackett, McKenzie and Little",9,Mayer,Washington,District of Columbia,United States,20215,mcreegan9g@storify.com,(202) 6201664
Hoppe-Lemke,6646,Green,Indianapolis,Indiana,United States,46239,wsawford9h@pinterest.com,(317) 1636535
"Dietrich, Hickle and Rohan",66354,Carberry,Minneapolis,Minnesota,United States,55407,evlasyuk9i@redcross.org,(952) 8474102
Stracke-Rolfson,86,Troy,Flushing,New York,United States,11388,lwheater9j@w3.org,(917) 9360715
Williamson LLC,3,Rowland,San Antonio,Texas,United States,78230,pfarbrace9k@house.gov,(830) 6628265
Torp-Von,118,Reindahl,Pueblo,Colorado,United States,81015,vblondell9l@elpais.com,(719) 2332441
"Conroy, D'Amore and Daugherty",4,Maple,Houston,Texas,United States,77040,mratley9m@tumblr.com,(281) 8476790
"Walter, Ratke and Lehner",53,Ridgeview,Washington,District of Columbia,United States,20062,sroxburgh9n@zimbio.com,(202) 6533402
Bogan-Barrows,2,Gerald,Salt Lake City,Utah,United States,84125,aethridge9o@pen.io,(801) 7803782
Miller-Langworth,4,Hudson,Minneapolis,Minnesota,United States,55441,drickhuss9p@gravatar.com,(952) 2577569
Lemke-Hettinger,5,Schurz,San Antonio,Texas,United States,78265,norht9q@kickstarter.com,(210) 4211889
Treutel Inc,62322,Calypso,Cincinnati,Ohio,United States,45223,slinbohm9r@yandex.ru,(513) 5533674
Conn Inc,07227,Independence,Lafayette,Louisiana,United States,70505,ncassel9s@nba.com,(337) 2489467
Konopelski-Buckridge,3,Homewood,Merrifield,Virginia,United States,22119,lpasso9t@vkontakte.ru,(571) 7908665
Crooks-Hyatt,496,Arapahoe,Washington,District of Columbia,United States,56944,jgaffon9u@ycombinator.com,(202) 6330796
Veum Group,1,Colorado,Jamaica,New York,United States,11470,abaldcock9v@paginegialle.it,(917) 2184067
Heathcote LLC,1,Grim,Cincinnati,Ohio,United States,45218,lfrankiewicz9w@tumblr.com,(513) 8953788
Erdman-Schiller,4495,Dahle,Houston,Texas,United States,77201,tjeune9x@pen.io,(832) 9263303
"Cremin, Bartoletti and Spencer",99,Dryden,Pittsburgh,Pennsylvania,United States,15220,kmacgeffen9y@desdev.cn,(412) 8909187
"Fahey, Dach and Feest",5,Manufacturers,Dallas,Texas,United States,75241,ctoffano9z@admin.ch,(469) 4989918
Tromp-Lockman,971,Forest,Boston,Massachusetts,United States,02109,prameta0@cdbaby.com,(617) 2090941
Gerlach-Wunsch,42,Sheridan,Charleston,West Virginia,United States,25362,mtembya1@umn.edu,(304) 4498610
Gorczany Group,92043,Lakewood Gardens,Inglewood,California,United States,90398,ggrandisona2@tamu.edu,(310) 1736327
Bergnaum Inc,22445,Arrowood,Bryan,Texas,United States,77806,tsmallridgea3@vk.com,(979) 6318523
Crona and Sons,8,West,Louisville,Kentucky,United States,40220,randryushchenkoa4@senate.gov,(502) 2141706
Beatty-Mann,9089,Fordem,Seattle,Washington,United States,98158,jcullimorea5@etsy.com,(425) 6781553
"Zulauf, Padberg and Grant",55,Old Gate,Charlotte,North Carolina,United States,28247,gjumela6@istockphoto.com,(704) 2738324
Kirlin-Nolan,3,Messerschmidt,Tulsa,Oklahoma,United States,74149,lcatta7@taobao.com,(918) 1274558
Kuhlman-Jenkins,6814,Jackson,Portland,Oregon,United States,97211,aduckera8@cisco.com,(503) 7786718
Miller-Tremblay,7734,Carpenter,Fort Wayne,Indiana,United States,46857,gvannikova9@hibu.com,(260) 8852848
Veum LLC,208,Acker,Orlando,Florida,United States,32854,bmoorcroftaa@usgs.gov,(407) 8215387
"Moore, O'Connell and West",52,Eastwood,Irvine,California,United States,92612,cchristophersenab@cmu.edu,(949) 5556991
Bins and Sons,2,Melrose,Colorado Springs,Colorado,United States,80940,sblackboroac@shareasale.com,(719) 5208266
Smith-Zboncak,48,Mandrake,Los Angeles,California,United States,90101,cwauchopead@pinterest.com,(213) 5824662
"Turner, Hegmann and Swift",5555,Porter,Winter Haven,Florida,United States,33884,amullisae@sciencedirect.com,(863) 7773623
Walsh LLC,6,Badeau,Lansing,Michigan,United States,48956,jmcgoldrickaf@umn.edu,(517) 3882887
Marks-Zboncak,9,Karstens,Glendale,California,United States,91210,dgaskinag@google.nl,(818) 6477257
Klein-Yost,0,Vahlen,Mobile,Alabama,United States,36605,hastlattah@dailymotion.com,(251) 4492167
Jones Group,754,Eagan,El Paso,Texas,United States,79968,hduffittai@printfriendly.com,(915) 5136886
Bashirian-Deckow,3,Starling,Boulder,Colorado,United States,80305,rpikettaj@archive.org,(720) 5776931
"O'Hara, Rowe and Zemlak",39006,Fairview,Austin,Texas,United States,78710,dtrengoveak@mozilla.org,(512) 4815630
"Turcotte, Howe and Nader",7098,Anniversary,Mesquite,Texas,United States,75185,jballaamal@people.com.cn,(214) 4924418
"Cole, Kreiger and Huel",2591,Summit,San Francisco,California,United States,94132,awimmeram@examiner.com,(415) 6662506
Feest Inc,8,Independence,Las Vegas,Nevada,United States,89155,vhalyan@kickstarter.com,(702) 9655554
Oberbrunner-Metz,8,Algoma,Buffalo,New York,United States,14276,pbenesevichao@forbes.com,(716) 7714015
Torp and Sons,3,Everett,Milwaukee,Wisconsin,United States,53285,jkilleleyap@blogtalkradio.com,(414) 7413215
Doyle-Hauck,1966,Bartillon,Pittsburgh,Pennsylvania,United States,15240,ecelizaq@oaic.gov.au,(412) 1518521
"Price, Hane and Gorczany",22,Karstens,Springfield,Virginia,United States,22156,tslimmar@newsvine.com,(571) 1780914
"Heller, Nikolaus and Sanford",0355,Old Gate,Milwaukee,Wisconsin,United States,53263,mjaksicas@skyrock.com,(414) 8319762
"Marks, Mills and Altenwerth",8028,Derek,San Diego,California,United States,92137,jmoyleat@naver.com,(619) 2682047
"Towne, Conroy and Jakubowski",71,Johnson,Pasadena,California,United States,91199,cpenimanau@godaddy.com,(626) 2277450
Bradtke and Sons,030,Daystar,Atlanta,Georgia,United States,31106,mbaglanav@live.com,(404) 8921046
"Kub, Hermann and Dicki",64484,Upham,Irvine,California,United States,92612,cdellaw@ihg.com,(714) 6989138
Lang Inc,3658,Onsgard,New Orleans,Louisiana,United States,70183,kburchardax@independent.co.uk,(504) 5387570
Franecki-Stokes,73851,Forest,Montgomery,Alabama,United States,36104,mpeekeay@nba.com,(334) 1451073
"Little, Huel and Stiedemann",445,Northview,Nashville,Tennessee,United States,37245,ykorneichikaz@theatlantic.com,(615) 1000863
"Robel, Mante and Barton",33,Golf,Orlando,Florida,United States,32819,lovittsb0@smugmug.com,(941) 5575661
"Purdy, Harvey and Jacobson",2,Bayside,Lansing,Michigan,United States,48901,nbilbrookb1@state.tx.us,(517) 2396806
"Bergnaum, Kassulke and Hand",170,Spaight,Albany,Georgia,United States,31704,twallworthb2@opera.com,(229) 3674383
"Bahringer, Reilly and Marquardt",6,Wayridge,New Orleans,Louisiana,United States,70183,fedlestonb3@ocn.ne.jp,(504) 1313078
"Schowalter, Kuvalis and Cummings",6400,Badeau,North Little Rock,Arkansas,United States,72118,nkenwynb4@clickbank.net,(501) 5766740
Tremblay-Wiza,17,Service,Rochester,New York,United States,14614,twassungb5@amazon.co.uk,(585) 3977553
"Roberts, Sporer and Haag",8,6th,Portland,Oregon,United States,97232,ipeachmentb6@zdnet.com,(503) 2333780
"Bernhard, Quigley and Rodriguez",7,Menomonie,Oklahoma City,Oklahoma,United States,73152,xbatecokb7@desdev.cn,(405) 7247596
Macejkovic-Ondricka,1546,Arapahoe,Little Rock,Arkansas,United States,72209,phayshamb8@ow.ly,(501) 4912037
Marvin-Fay,8129,Barnett,Staten Island,New York,United States,10305,icellierb9@addthis.com,(718) 3416980
Hoppe-Emard,75,Drewry,Austin,Texas,United States,78732,tbouleba@cnn.com,(512) 5122309
Rolfson-Lockman,8,Stone Corner,Boise,Idaho,United States,83722,dhubbinsbb@hc360.com,(208) 4213907
Streich-Feeney,91072,Moland,Lubbock,Texas,United States,79491,jscudderbc@infoseek.co.jp,(806) 4451308
Willms Group,96857,Claremont,Grand Rapids,Michigan,United States,49505,cgrinikhinovbd@jimdo.com,(616) 1461462
"Conn, Ortiz and Armstrong",1,Nancy,Monticello,Minnesota,United States,55565,ksheringtonbe@cmu.edu,(763) 3176057
Mohr-Jaskolski,16,John Wall,Apache Junction,Arizona,United States,85219,ptruckettbf@marketwatch.com,(480) 5369057
"Tremblay, Gutmann and Schneider",2496,Pierstorff,Pasadena,California,United States,91186,lwitcherleybg@elpais.com,(626) 3248981
"Jacobs, Zulauf and Braun",78171,Texas,San Antonio,Texas,United States,78291,nboheabh@ycombinator.com,(210) 5279367
Balistreri and Sons,47,Ilene,Van Nuys,California,United States,91406,ebrassebi@rediff.com,(805) 4374616
Harber Group,278,Eastlawn,Milwaukee,Wisconsin,United States,53263,gguarnierbj@taobao.com,(414) 5858324
"Hodkiewicz, Gorczany and Jaskolski",099,Schlimgen,Nashville,Tennessee,United States,37250,hmackaigbk@virginia.edu,(615) 9221625
Casper and Sons,137,Lakeland,Saint Paul,Minnesota,United States,55188,ehourihanebl@indiegogo.com,(651) 2353718
Sanford-Luettgen,66454,Fairfield,El Paso,Texas,United States,79955,cfressonbm@xrea.com,(915) 4680095
Predovic-Anderson,231,Longview,El Paso,Texas,United States,79999,gparcallbn@technorati.com,(915) 6128404
Baumbach Group,95057,4th,Clearwater,Florida,United States,33758,dclissettbo@arstechnica.com,(813) 4634024
Renner-Daniel,85,Autumn Leaf,Wilmington,Delaware,United States,19805,teeftingbp@paginegialle.it,(302) 9979946
"Mayer, Hodkiewicz and Wuckert",72172,Twin Pines,Baltimore,Maryland,United States,21282,sjouanninbq@nydailynews.com,(410) 2023380
Block-Steuber,6,Luster,Salt Lake City,Utah,United States,84135,kloggbr@hatena.ne.jp,(801) 7864297
"Rippin, Kertzmann and Brakus",39584,Superior,Houston,Texas,United States,77276,ltweedebs@cnet.com,(713) 5213755
Keeling Inc,67780,Grasskamp,Fort Myers,Florida,United States,33913,athomenbt@mtv.com,(239) 4620494
Ferry LLC,831,Oneill,Albany,New York,United States,12222,wpoleykettbu@miitbeian.gov.cn,(518) 3662014
DuBuque-Brekke,3446,Mariners Cove,Houston,Texas,United States,77271,rguisebv@cargocollective.com,(713) 8545644
Conn Group,0704,Jenifer,New York City,New York,United States,10019,lpesakbw@printfriendly.com,(917) 6268632
Bergnaum LLC,30,Farmco,Saint Paul,Minnesota,United States,55123,whartilbx@wix.com,(651) 6391484
Von Inc,6,Weeping Birch,Lancaster,Pennsylvania,United States,17622,gpierseby@salon.com,(717) 1870903
Hartmann Group,8402,Kropf,Atlanta,Georgia,United States,31136,fgearybz@hao123.com,(404) 8894832
"Schultz, Kunze and Wisoky",480,Sunbrook,Amarillo,Texas,United States,79116,kblaaschc0@businessweek.com,(806) 5206275
Prosacco-Smith,96474,Northridge,Milwaukee,Wisconsin,United States,53277,mmaunsellc1@tumblr.com,(414) 7393344
"Erdman, Hodkiewicz and Homenick",97,Crest Line,Saint Louis,Missouri,United States,63110,ycolebournec2@buzzfeed.com,(314) 3777369
Legros Group,06042,Scofield,El Paso,Texas,United States,88530,savesquec3@hc360.com,(915) 1710871
"Gorczany, Quitzon and Baumbach",9482,Meadow Vale,Winston Salem,North Carolina,United States,27110,dgooderc4@wunderground.com,(336) 4450110
Reynolds-Metz,1914,Dennis,Arlington,Virginia,United States,22217,hwooffc5@state.tx.us,(571) 3655964
"Cartwright, Greenfelder and Schamberger",1521,Swallow,Virginia Beach,Virginia,United States,23471,mdwerryhousec6@comsenz.com,(757) 9119310
"Price, Marks and Little",7677,Browning,Tucson,Arizona,United States,85732,lscatcherc7@1688.com,(520) 9988519
"Nitzsche, Hammes and Reichel",04,Fairview,Mobile,Alabama,United States,36670,pkennellyc8@github.io,(251) 9331782
Swift-Berge,5,Coleman,Aurora,Colorado,United States,80015,pespinelc9@wikimedia.org,(720) 2911141
Grant and Sons,4,Susan,Washington,District of Columbia,United States,20268,btumbridgeca@infoseek.co.jp,(202) 8281641
Walker-Zboncak,6,Cambridge,Tulsa,Oklahoma,United States,74108,rrabjohnscb@dell.com,(918) 4101261
Feeney LLC,661,Bellgrove,Minneapolis,Minnesota,United States,55487,aeveritcc@jalbum.net,(612) 2593946
Pagac LLC,7491,Hoard,Grand Forks,North Dakota,United States,58207,tbrittlescd@psu.edu,(701) 9504883
Thompson Group,9801,Southridge,Columbus,Georgia,United States,31998,fmoarce@mediafire.com,(706) 9673920
Weimann-Lehner,54224,Fair Oaks,Jersey City,New Jersey,United States,07310,uonionscf@ehow.com,(973) 1071633
"Wolf, Braun and Abernathy",0,Ohio,Simi Valley,California,United States,93094,gmuckcg@pinterest.com,(805) 4139821
Morissette-Carroll,817,Crest Line,Brockton,Massachusetts,United States,02405,atonbridgech@huffingtonpost.com,(508) 3768350
"Littel, Gislason and Hand",9,Burning Wood,Saint Petersburg,Florida,United States,33710,aranscomeci@issuu.com,(727) 8843460
Turcotte-Tillman,0676,Vahlen,Waco,Texas,United States,76796,lhalwellcj@boston.com,(254) 6082191
"Ritchie, Powlowski and Romaguera",214,7th,Tallahassee,Florida,United States,32309,dmadgwichck@dyndns.org,(850) 2370791
Cormier-Collier,1,Hooker,Saint Louis,Missouri,United States,63121,koriscl@live.com,(314) 9262660
Kunde-Doyle,20155,6th,Lehigh Acres,Florida,United States,33972,fbaudaincm@shop-pro.jp,(863) 8709645
Hettinger-Mertz,974,Bluestem,Ashburn,Virginia,United States,22093,tlathayecn@edublogs.org,(571) 9281620
"Kutch, Friesen and Schuster",0,Loomis,Midland,Texas,United States,79705,mpepinco@huffingtonpost.com,(432) 4414053
"Homenick, Schumm and Strosin",2866,Hazelcrest,Houston,Texas,United States,77240,dclapshawcp@dell.com,(713) 3156402
Lakin-Greenholt,9513,Carberry,Saint Paul,Minnesota,United States,55172,sbartomieucq@disqus.com,(651) 4649282
Pollich and Sons,0579,Delladonna,Washington,District of Columbia,United States,20016,emcneecr@jimdo.com,(703) 8363767
Altenwerth-White,866,Fulton,Mobile,Alabama,United States,36610,msimoncellocs@usgs.gov,(251) 3385637
"Schroeder, Stehr and Hamill",047,Almo,Miami,Florida,United States,33134,eicomct@alibaba.com,(305) 3975142
Waelchi Inc,21,Fuller,Dallas,Texas,United States,75277,heingerfieldcu@ibm.com,(214) 6821143
Borer-Leuschke,23875,Redwing,Hollywood,Florida,United States,33023,bsmizcv@w3.org,(305) 4806666
Beahan-Rau,7340,Ruskin,New York City,New York,United States,10014,omurfincw@flickr.com,(917) 2317321
Johns LLC,75693,Southridge,Dallas,Texas,United States,75210,ywardleycx@sakura.ne.jp,(214) 3258229
Abbott-Bode,9,Caliangt,Tucson,Arizona,United States,85737,ecrottycy@google.ru,(520) 5292895
"Collins, Hermiston and Kuhlman",7,Forest Dale,Tulsa,Oklahoma,United States,74170,ezuanncz@forbes.com,(918) 2145128
Cummerata and Sons,7371,Holy Cross,Omaha,Nebraska,United States,68144,cfarbraced0@shareasale.com,(402) 7594949
Muller-Aufderhar,7,Delladonna,Akron,Ohio,United States,44315,chiggonetd1@networkadvertising.org,(330) 9272820
Wilderman Inc,356,Russell,Panama City,Florida,United States,32405,lhanaland2@ycombinator.com,(850) 6302703
"Olson, Hettinger and Adams",79622,Coolidge,Orlando,Florida,United States,32891,gbolusd3@slashdot.org,(407) 8455089
"Stroman, Lebsack and Windler",8042,Milwaukee,Bronx,New York,United States,10474,sboultwoodd4@japanpost.jp,(718) 6412704
"Nader, Marquardt and Brekke",776,Macpherson,Canton,Ohio,United States,44705,hettlesd5@so-net.ne.jp,(330) 6501757
Balistreri-Hagenes,827,Forster,Birmingham,Alabama,United States,35205,jcrutchfieldd6@infoseek.co.jp,(205) 8189079
Tillman and Sons,868,Tony,Fort Smith,Arkansas,United States,72905,bthurleyd7@hc360.com,(479) 6249448
Ward-Abernathy,7,Loomis,Charleston,West Virginia,United States,25356,hwaterfalld8@dedecms.com,(304) 4647674
Abbott-Blanda,6,Merchant,West Palm Beach,Florida,United States,33405,jguerrerud9@cam.ac.uk,(772) 1206921
"Wilkinson, Schultz and Blanda",42428,Westport,Boise,Idaho,United States,83705,hbaddoeda@t-online.de,(208) 1469902
"Parisian, Bernier and Ankunding",10292,Florence,Columbus,Georgia,United States,31904,mcreandb@slashdot.org,(706) 1547767
Von-Macejkovic,80,Butterfield,Sacramento,California,United States,94263,lsowleydc@sphinn.com,(916) 2380685
Grimes-Legros,06,Center,Des Moines,Iowa,United States,50315,ldrysdelldd@behance.net,(641) 9534059
"Bergnaum, Dibbert and Dibbert",2893,Monument,Las Vegas,Nevada,United States,89140,tvaudinde@odnoklassniki.ru,(702) 5171838
"McKenzie, Rolfson and Simonis",99,Manitowish,Kansas City,Missouri,United States,64101,rmacmarcuisdf@vkontakte.ru,(816) 4307626
Gleason and Sons,601,Pankratz,Portland,Oregon,United States,97229,bschirokdg@ebay.co.uk,(971) 7984019
Conroy Inc,962,Westport,Rochester,New York,United States,14683,hveeldh@cnn.com,(585) 9062508
"Littel, Nicolas and Crona",39,Moland,Mesa,Arizona,United States,85210,kmcginlaydi@zdnet.com,(480) 2671622
Mayert Inc,683,Hovde,Augusta,Georgia,United States,30919,hmonnidj@jiathis.com,(706) 4208444
"Lowe, Schmitt and Kiehn",481,Iowa,Reston,Virginia,United States,22096,rhaywarddk@miitbeian.gov.cn,(571) 9681450
Stamm-Yost,91,Linden,Kansas City,Kansas,United States,66105,livisondl@ning.com,(913) 5129319
O'Keefe LLC,15771,Sauthoff,Baltimore,Maryland,United States,21275,bthinndm@w3.org,(410) 7871157
Schoen-Greenholt,26,Sunbrook,Madison,Wisconsin,United States,53785,amakepeacedn@google.it,(608) 6028935
Gutkowski-Green,06919,Scott,El Paso,Texas,United States,88530,ftupiedo@washington.edu,(915) 3427022
"Brown, Walsh and Mitchell",87941,Butternut,Madison,Wisconsin,United States,53716,zdecreuzedp@hc360.com,(608) 9533263
Funk-MacGyver,4,Johnson,Salinas,California,United States,93907,lklavesdq@networksolutions.com,(831) 1370869
Stokes-Orn,738,Bluejay,Pasadena,California,United States,91131,ljacquemetdr@wikia.com,(626) 7878654
"Hammes, Kling and Littel",21,Russell,San Antonio,Texas,United States,78230,mpinnerds@tripadvisor.com,(210) 1095195
"Lemke, Davis and Ferry",049,Merrick,Las Vegas,Nevada,United States,89105,fpollingtondt@newyorker.com,(702) 3685165
Rempel Inc,3289,Scott,Indianapolis,Indiana,United States,46247,pburkmandu@webmd.com,(317) 7974167
Gleason and Sons,9974,Hanover,Flint,Michigan,United States,48550,bgoforddv@multiply.com,(810) 5462331
